STARLINK-31046          
1 58552U 23192X   25212.62075849 -.00000169  00000+0  64159-5 0  9991
2 58552  53.1616   9.9435 0001111  91.2434 268.8694 15.30189035 92139
STARLINK-31044          
1 58589U 23200A   25211.95371668  .00002920  00000+0  23115-3 0  9995
2 58589  43.0030 294.7314 0001681 272.7048  87.3602 15.02533150 90249
STARLINK-31062          
1 58590U 23200B   25212.50365906  .00000395  00000+0  44350-4 0  9996
2 58590  43.0037 293.7021 0001969 278.8737  81.1882 15.02535961 90304
STARLINK-31096          
1 58592U 23200D   25212.66428489 -.00005232  00000+0 -37302-3 0  9996
2 58592  43.0019 292.3318 0000504  11.3954 348.6899 15.02491280 90365
STARLINK-31094          
1 58593U 23200E   25212.27623611  .00000543  00000+0  55298-4 0  9991
2 58593  43.0031 293.7271 0001230 281.5565  78.5139 15.02537222 90283
STARLINK-31075          
1 58594U 23200F   25212.52881905  .00000082  00000+0  21147-4 0  9996
2 58594  43.0031 292.1713 0000472 258.2920 101.7870 15.02554805 90323
STARLINK-30857          
1 58595U 23200G   25212.66511569  .00000113  00000+0  23474-4 0  9998
2 58595  43.0040 291.4839 0001874 271.6588  88.4040 15.02533368 90377
STARLINK-31059          
1 58596U 23200H   25211.98123340  .00005755  00000+0  21825-3 0  9993
2 58596  43.0021 184.2150 0001638  67.9449 292.1576 15.27615358 91547
STARLINK-31087          
1 58597U 23200J   25212.72500181 -.00009941  00000+0 -72337-3 0  9996
2 58597  43.0042 291.0726 0000800 331.8131  28.2668 15.02460325 90250
STARLINK-31079          
1 58598U 23200K   25212.53038132  .00029732  00000+0  20742-2 0  9998
2 58598  43.0014 291.3453 0004364 312.9816  47.0661 15.04857416 90333
STARLINK-31052          
1 58600U 23200M   25212.51884356  .00000251  00000+0  33659-4 0  9995
2 58600  43.0041 292.1067 0001188 261.9391  98.1316 15.02533551 90321
STARLINK-31074          
1 58601U 23200N   25212.51551140 -.00000186  00000+0  13384-5 0  9990
2 58601  43.0036 292.0813 0001297 266.8564  93.2130 15.02534851 90325
STARLINK-31071          
1 58602U 23200P   25212.31252427  .00000371  00000+0  23006-4 0  9991
2 58602  43.0019 178.8921 0001090 260.4387  99.6342 15.27576170 91639
STARLINK-31080          
1 58603U 23200Q   25212.51217777  .00000550  00000+0  55803-4 0  9992
2 58603  43.0024 292.0550 0000998 264.5800  95.4929 15.02538371 90137
STARLINK-31088          
1 58604U 23200R   25212.50883922 -.00003834  00000+0 -26874-3 0  9998
2 58604  43.0032 292.0162 0000617 278.2439  81.8334 15.02560182 90329
STARLINK-31038          
1 58605U 23200S   25212.50211265  .00012613  00000+0  94477-3 0  9991
2 58605  43.0034 291.9805 0001035 241.2199 118.8539 15.02627775 90322
STARLINK-31082          
1 58606U 23200T   25212.50552088 -.00000243  00000+0 -28948-5 0  9993
2 58606  43.0000 292.0052 0000755 262.5922  97.4835 15.02532100 90328
