[{"OBJECT_NAME":"STARLINK-31046","OBJECT_ID":"2023-192X","EPOCH":"2025-07-31T14:53:53.533536","MEAN_MOTION":15.30189035,"ECCENTRICITY":0.0001111,"INCLINATION":53.1616,"RA_OF_ASC_NODE":9.9435,"ARG_OF_PERICENTER":91.2434,"MEAN_ANOMALY":268.8694,"EPHEMERIS_TYPE":0,"CLASSIFICATION_TYPE":"U","NORAD_CAT_ID":58552,"ELEMENT_SET_NO":999,"REV_AT_EPOCH":9213,"BSTAR":6.4159e-6,"MEAN_MOTION_DOT":-1.69e-6,"MEAN_MOTION_DDOT":0},{"OBJECT_NAME":"STARLINK-31044","OBJECT_ID":"2023-200A","EPOCH":"2025-07-30T22:53:21.121152","MEAN_MOTION":15.0253315,"ECCENTRICITY":0.0001681,"INCLINATION":43.003,"RA_OF_ASC_NODE":294.7314,"ARG_OF_PERICENTER":272.7048,"MEAN_ANOMALY":87.3602,"EPHEMERIS_TYPE":0,"CLASSIFICATION_TYPE":"U","NORAD_CAT_ID":58589,"ELEMENT_SET_NO":999,"REV_AT_EPOCH":9024,"BSTAR":0.00023115,"MEAN_MOTION_DOT":2.92e-5,"MEAN_MOTION_DDOT":0},{"OBJECT_NAME":"STARLINK-31062","OBJECT_ID":"2023-200B","EPOCH":"2025-07-31T12:05:16.142784","MEAN_MOTION":15.02535961,"ECCENTRICITY":0.0001969,"INCLINATION":43.0037,"RA_OF_ASC_NODE":293.7021,"ARG_OF_PERICENTER":278.8737,"MEAN_ANOMALY":81.1882,"EPHEMERIS_TYPE":0,"CLASSIFICATION_TYPE":"U","NORAD_CAT_ID":58590,"ELEMENT_SET_NO":999,"REV_AT_EPOCH":9030,"BSTAR":4.435e-5,"MEAN_MOTION_DOT":3.95e-6,"MEAN_MOTION_DDOT":0},{"OBJECT_NAME":"STARLINK-31096","OBJECT_ID":"2023-200D","EPOCH":"2025-07-31T15:56:34.214496","MEAN_MOTION":15.0249128,"ECCENTRICITY":5.04e-5,"INCLINATION":43.0019,"RA_OF_ASC_NODE":292.3318,"ARG_OF_PERICENTER":11.3954,"MEAN_ANOMALY":348.6899,"EPHEMERIS_TYPE":0,"CLASSIFICATION_TYPE":"U","NORAD_CAT_ID":58592,"ELEMENT_SET_NO":999,"REV_AT_EPOCH":9036,"BSTAR":-0.00037302,"MEAN_MOTION_DOT":-5.232e-5,"MEAN_MOTION_DDOT":0},{"OBJECT_NAME":"STARLINK-31094","OBJECT_ID":"2023-200E","EPOCH":"2025-07-31T06:37:46.799904","MEAN_MOTION":15.02537222,"ECCENTRICITY":0.000123,"INCLINATION":43.0031,"RA_OF_ASC_NODE":293.7271,"ARG_OF_PERICENTER":281.5565,"MEAN_ANOMALY":78.5139,"EPHEMERIS_TYPE":0,"CLASSIFICATION_TYPE":"U","NORAD_CAT_ID":58593,"ELEMENT_SET_NO":999,"REV_AT_EPOCH":9028,"BSTAR":5.5298e-5,"MEAN_MOTION_DOT":5.43e-6,"MEAN_MOTION_DDOT":0},{"OBJECT_NAME":"STARLINK-31075","OBJECT_ID":"2023-200F","EPOCH":"2025-07-31T12:41:29.965920","MEAN_MOTION":15.02554805,"ECCENTRICITY":4.72e-5,"INCLINATION":43.0031,"RA_OF_ASC_NODE":292.1713,"ARG_OF_PERICENTER":258.292,"MEAN_ANOMALY":101.787,"EPHEMERIS_TYPE":0,"CLASSIFICATION_TYPE":"U","NORAD_CAT_ID":58594,"ELEMENT_SET_NO":999,"REV_AT_EPOCH":9032,"BSTAR":2.1147e-5,"MEAN_MOTION_DOT":8.2e-7,"MEAN_MOTION_DDOT":0},{"OBJECT_NAME":"STARLINK-30857","OBJECT_ID":"2023-200G","EPOCH":"2025-07-31T15:57:45.995616","MEAN_MOTION":15.02533368,"ECCENTRICITY":0.0001874,"INCLINATION":43.004,"RA_OF_ASC_NODE":291.4839,"ARG_OF_PERICENTER":271.6588,"MEAN_ANOMALY":88.404,"EPHEMERIS_TYPE":0,"CLASSIFICATION_TYPE":"U","NORAD_CAT_ID":58595,"ELEMENT_SET_NO":999,"REV_AT_EPOCH":9037,"BSTAR":2.3474e-5,"MEAN_MOTION_DOT":1.13e-6,"MEAN_MOTION_DDOT":0},{"OBJECT_NAME":"STARLINK-31059","OBJECT_ID":"2023-200H","EPOCH":"2025-07-30T23:32:58.565760","MEAN_MOTION":15.27615358,"ECCENTRICITY":0.0001638,"INCLINATION":43.0021,"RA_OF_ASC_NODE":184.215,"ARG_OF_PERICENTER":67.9449,"MEAN_ANOMALY":292.1576,"EPHEMERIS_TYPE":0,"CLASSIFICATION_TYPE":"U","NORAD_CAT_ID":58596,"ELEMENT_SET_NO":999,"REV_AT_EPOCH":9154,"BSTAR":0.00021825,"MEAN_MOTION_DOT":5.755e-5,"MEAN_MOTION_DDOT":0},{"OBJECT_NAME":"STARLINK-31087","OBJECT_ID":"2023-200J","EPOCH":"2025-07-31T17:24:00.156384","MEAN_MOTION":15.02460325,"ECCENTRICITY":8.0e-5,"INCLINATION":43.0042,"RA_OF_ASC_NODE":291.0726,"ARG_OF_PERICENTER":331.8131,"MEAN_ANOMALY":28.2668,"EPHEMERIS_TYPE":0,"CLASSIFICATION_TYPE":"U","NORAD_CAT_ID":58597,"ELEMENT_SET_NO":999,"REV_AT_EPOCH":9025,"BSTAR":-0.00072337,"MEAN_MOTION_DOT":-9.941e-5,"MEAN_MOTION_DDOT":0},{"OBJECT_NAME":"STARLINK-31079","OBJECT_ID":"2023-200K","EPOCH":"2025-07-31T12:43:44.946048","MEAN_MOTION":15.04857416,"ECCENTRICITY":0.0004364,"INCLINATION":43.0014,"RA_OF_ASC_NODE":291.3453,"ARG_OF_PERICENTER":312.9816,"MEAN_ANOMALY":47.0661,"EPHEMERIS_TYPE":0,"CLASSIFICATION_TYPE":"U","NORAD_CAT_ID":58598,"ELEMENT_SET_NO":999,"REV_AT_EPOCH":9033,"BSTAR":0.0020742,"MEAN_MOTION_DOT":0.00029732,"MEAN_MOTION_DDOT":0},{"OBJECT_NAME":"STARLINK-31052","OBJECT_ID":"2023-200M","EPOCH":"2025-07-31T12:27:08.083584","MEAN_MOTION":15.02533551,"ECCENTRICITY":0.0001188,"INCLINATION":43.0041,"RA_OF_ASC_NODE":292.1067,"ARG_OF_PERICENTER":261.9391,"MEAN_ANOMALY":98.1316,"EPHEMERIS_TYPE":0,"CLASSIFICATION_TYPE":"U","NORAD_CAT_ID":58600,"ELEMENT_SET_NO":999,"REV_AT_EPOCH":9032,"BSTAR":3.3659e-5,"MEAN_MOTION_DOT":2.51e-6,"MEAN_MOTION_DDOT":0},{"OBJECT_NAME":"STARLINK-31074","OBJECT_ID":"2023-200N","EPOCH":"2025-07-31T12:22:20.184960","MEAN_MOTION":15.02534851,"ECCENTRICITY":0.0001297,"INCLINATION":43.0036,"RA_OF_ASC_NODE":292.0813,"ARG_OF_PERICENTER":266.8564,"MEAN_ANOMALY":93.213,"EPHEMERIS_TYPE":0,"CLASSIFICATION_TYPE":"U","NORAD_CAT_ID":58601,"ELEMENT_SET_NO":999,"REV_AT_EPOCH":9032,"BSTAR":1.3384e-6,"MEAN_MOTION_DOT":-1.86e-6,"MEAN_MOTION_DDOT":0},{"OBJECT_NAME":"STARLINK-31071","OBJECT_ID":"2023-200P","EPOCH":"2025-07-31T07:30:02.096928","MEAN_MOTION":15.2757617,"ECCENTRICITY":0.000109,"INCLINATION":43.0019,"RA_OF_ASC_NODE":178.8921,"ARG_OF_PERICENTER":260.4387,"MEAN_ANOMALY":99.6342,"EPHEMERIS_TYPE":0,"CLASSIFICATION_TYPE":"U","NORAD_CAT_ID":58602,"ELEMENT_SET_NO":999,"REV_AT_EPOCH":9163,"BSTAR":2.3006e-5,"MEAN_MOTION_DOT":3.71e-6,"MEAN_MOTION_DDOT":0},{"OBJECT_NAME":"STARLINK-31080","OBJECT_ID":"2023-200Q","EPOCH":"2025-07-31T12:17:32.159328","MEAN_MOTION":15.02538371,"ECCENTRICITY":9.98e-5,"INCLINATION":43.0024,"RA_OF_ASC_NODE":292.055,"ARG_OF_PERICENTER":264.58,"MEAN_ANOMALY":95.4929,"EPHEMERIS_TYPE":0,"CLASSIFICATION_TYPE":"U","NORAD_CAT_ID":58603,"ELEMENT_SET_NO":999,"REV_AT_EPOCH":9013,"BSTAR":5.5803e-5,"MEAN_MOTION_DOT":5.5e-6,"MEAN_MOTION_DDOT":0},{"OBJECT_NAME":"STARLINK-31088","OBJECT_ID":"2023-200R","EPOCH":"2025-07-31T12:12:43.708608","MEAN_MOTION":15.02560182,"ECCENTRICITY":6.17e-5,"INCLINATION":43.0032,"RA_OF_ASC_NODE":292.0162,"ARG_OF_PERICENTER":278.2439,"MEAN_ANOMALY":81.8334,"EPHEMERIS_TYPE":0,"CLASSIFICATION_TYPE":"U","NORAD_CAT_ID":58604,"ELEMENT_SET_NO":999,"REV_AT_EPOCH":9032,"BSTAR":-0.00026874,"MEAN_MOTION_DOT":-3.834e-5,"MEAN_MOTION_DDOT":0},{"OBJECT_NAME":"STARLINK-31038","OBJECT_ID":"2023-200S","EPOCH":"2025-07-31T12:03:02.532960","MEAN_MOTION":15.02627775,"ECCENTRICITY":0.0001035,"INCLINATION":43.0034,"RA_OF_ASC_NODE":291.9805,"ARG_OF_PERICENTER":241.2199,"MEAN_ANOMALY":118.8539,"EPHEMERIS_TYPE":0,"CLASSIFICATION_TYPE":"U","NORAD_CAT_ID":58605,"ELEMENT_SET_NO":999,"REV_AT_EPOCH":9032,"BSTAR":0.00094477,"MEAN_MOTION_DOT":0.00012613,"MEAN_MOTION_DDOT":0},{"OBJECT_NAME":"STARLINK-31082","OBJECT_ID":"2023-200T","EPOCH":"2025-07-31T12:07:57.004032","MEAN_MOTION":15.025321,"ECCENTRICITY":7.55e-5,"INCLINATION":43,"RA_OF_ASC_NODE":292.0052,"ARG_OF_PERICENTER":262.5922,"MEAN_ANOMALY":97.4835,"EPHEMERIS_TYPE":0,"CLASSIFICATION_TYPE":"U","NORAD_CAT_ID":58606,"ELEMENT_SET_NO":999,"REV_AT_EPOCH":9032,"BSTAR":-2.8948e-6,"MEAN_MOTION_DOT":-2.43e-6,"MEAN_MOTION_DDOT":0}]
